PROBA-1                 
1 26958U 01049B   26164.95057061  .00001803  00000+0  11922-3 0  9995
2 26958  97.9604 173.3697 0056183 132.6292 227.9692 15.07484023343136
CUTE-1 (CO-55)          
1 27844U 03031E   26164.94626113  .00000270  00000+0  13581-3 0  9992
2 27844  98.6736 173.5458 0009311 187.4250 172.6793 14.24333937191218
CUBESAT XI-IV (CO-57)   
1 27848U 03031J   26164.58167660  .00000234  00000+0  12199-3 0  9997
2 27848  98.6767 172.9014 0008793 208.1063 151.9642 14.23619125190861
APRIZESAT 4             
1 35684U 09041D   26164.75059840  .00000596  00000+0  77797-4 0  9997
2 35684  98.1413 240.0026 0042622 334.4129  25.4975 14.83875296910858
APRIZESAT 3             
1 35686U 09041F   26164.88896243  .00001490  00000+0  13274-3 0  9992
2 35686  98.2055 317.9550 0062746  78.3611 282.4643 14.96231775915885
PROBA-2                 
1 36037U 09059B   26164.93924569  .00000175  00000+0  51232-4 0  9997
2 36037  98.2449 348.3371 0012032 293.2401  66.7529 14.54861184881054
APRIZESAT 5             
1 37792U 11044E   26164.76440781  .00001072  00000+0  14244-3 0  9991
2 37792  98.2454  97.7078 0052619  15.2822 344.9964 14.81069411798281
APRIZESAT 6             
1 37793U 11044F   26164.76014356  .00000710  00000+0  10719-3 0  9998
2 37793  98.2368  75.1897 0044477  96.6682 328.9113 14.76911331796642
PROBA-V                 
1 39159U 13021A   26164.88605581  .00000066  00000+0  46796-4 0  9991
2 39159  98.3582 143.6556 0005007 131.1901 228.9711 14.23596410680641
APRIZESAT 7             
1 39416U 13066A   26164.86676754  .00000995  00000+0  10392-3 0  9997
2 39416  97.7709 118.1344 0034740 220.4951 139.3682 14.91557688680737
APRIZESAT 8             
1 39425U 13066K   26164.84564537  .00000933  00000+0  10694-3 0  9997
2 39425  97.8221 112.3601 0044540 297.9239  61.7471 14.87647241679176
BUGSAT-1 (TITA)         
1 40014U 14033E   26164.93313530  .00006082  00000+0  32159-3 0  9994
2 40014  98.0428 257.2912 0027747 189.6693 170.4007 15.15552750655347
SAUDISAT 4              
1 40016U 14033G   26164.94026254  .00000644  00000+0  91410-4 0  9995
2 40016  97.7578 311.1873 0046230  84.2348 276.4132 14.79540858645599
APRIZESAT 9             
1 40018U 14033J   26164.94963153  .00000632  00000+0  10025-3 0  9994
2 40018  97.9056 298.2274 0065454 209.6629 150.0862 14.74210615643087
APRIZESAT 10            
1 40019U 14033K   26164.31711768  .00000380  00000+0  67697-4 0  9997
2 40019  97.9645 291.3629 0077456 286.4255  72.8449 14.70879323641682
TECHDEMOSAT-1 (TDS-1)   
1 40076U 14037H   26164.91849123  .00008543  00000+0  48456-3 0  9997
2 40076  98.3808 156.8074 0004568 281.1076  78.9639 15.13250006647736
TECHNOSAT               
1 42829U 17042E   26164.92480517  .00004103  00000+0  29267-3 0  9990
2 42829  97.4269 322.7067 0018796 104.4901 255.8413 15.04939694486210
FLYING LAPTOP           
1 42831U 17042G   26164.91927654  .00005338  00000+0  41950-3 0  9994
2 42831  97.4665 320.5786 0019459 132.3226 227.9651 15.01129459485966
HAWK-A                  
1 43765U 18099H   26164.93525691  .00006543  00000+0  26417-3 0  9991
2 43765  97.3918 217.2133 0033204 297.9465  61.8413 15.24608999412606
HAWK-B                  
1 43794U 18099AN  26164.88721405  .00006442  00000+0  27513-3 0  9994
2 43794  97.3968 216.5879 0030679 317.0797  42.8046 15.22793384412531
HAWK-C                  
1 43799U 18099AT  26164.85366640  .00007587  00000+0  27390-3 0  9996
2 43799  97.3897 218.0285 0038867 298.1388  61.5926 15.28060862413403
SALSAT                  
1 46495U 20068K   26164.94040297  .00008079  00000+0  28292-3 0  9997
2 46495  97.8844 167.8072 0008282 321.8659  38.1993 15.29757675314864
HAWK-2C                 
1 47502U 21006CT  26164.69645498  .00006757  00000+0  20360-3 0  9995
2 47502  97.2280 209.0758 0006277 198.3110 161.7909 15.34624685298965
HAWK-2A                 
1 47505U 21006CW  26164.69898159  .00006677  00000+0  20117-3 0  9993
2 47505  97.2324 209.7541 0005708 201.5440 158.5564 15.34639420298969
HAWK-2B                 
1 47508U 21006CZ  26164.62951089  .00007464  00000+0  22398-3 0  9999
2 47508  97.2194 208.0232 0006274 199.9190 160.1810 15.34721434298956
HAWK-3B                 
1 48931U 21059BE  26164.49867139  .00040908  00000+0  35125-3 0  9997
2 48931  97.6657   0.8591 0003487 349.8779  10.2411 15.69267023277274
HAWK-3C                 
1 48948U 21059BX  26164.49835285  .00041722  00000+0  35808-3 0  9995
2 48948  97.6784   6.5384 0003794 349.8001  10.3183 15.69273060277270
HAWK-3A                 
1 48957U 21059CG  26164.49824275  .00041060  00000+0  35237-3 0  9993
2 48957  97.6723   3.7462 0003871 352.1708   7.9492 15.69277429277274
HAWK-5C                 
1 52754U 22057Y   26164.94799748  .00019291  00000+0  33012-3 0  9998
2 52754  97.6586 324.4063 0005198  92.6716 267.5131 15.51289516225841
HAWK-5B                 
1 52756U 22057AA  26164.94784848  .00019104  00000+0  32690-3 0  9999
2 52756  97.6594 322.7552 0005850  85.5710 274.6210 15.51289845225848
