OBJECT_NAME,OBJECT_ID,EPOCH,MEAN_MOTION,ECCENTRICITY,INCLINATION,RA_OF_ASC_NODE,ARG_OF_PERICENTER,MEAN_ANOMALY,EPHEMERIS_TYPE,CLASSIFICATION_TYPE,NORAD_CAT_ID,ELEMENT_SET_NO,REV_AT_EPOCH,BSTAR,MEAN_MOTION_DOT,MEAN_MOTION_DDOT
PROBA-1,2001-049B,2026-06-13T22:48:49.300704,15.07484023,.00561835,97.9604,173.3697,132.6292,227.9692,0,U,26958,999,34313,.11921823E-3,.1803E-4,0
CUTE-1 (CO-55),2003-031E,2026-06-13T22:42:36.961632,14.24333937,.00093119,98.6736,173.5458,187.4250,172.6793,0,U,27844,999,19121,.13581143E-3,.27E-5,0
CUBESAT XI-IV (CO-57),2003-031J,2026-06-13T13:57:36.858240,14.23619125,.0008793,98.6767,172.9014,208.1063,151.9642,0,U,27848,999,19086,.12199E-3,.234E-5,0
APRIZESAT 4,2009-041D,2026-06-13T18:00:51.701760,14.83875296,.00426225,98.1413,240.0026,334.4129,25.4975,0,U,35684,999,91085,.77797384E-4,.596E-5,0
APRIZESAT 3,2009-041F,2026-06-13T21:20:06.353952,14.96231775,.00627462,98.2055,317.9550,78.3611,282.4643,0,U,35686,999,91588,.13273746E-3,.149E-4,0
PROBA-2,2009-059B,2026-06-13T22:32:30.827616,14.54861184,.00120326,98.2449,348.3371,293.2401,66.7529,0,U,36037,999,88105,.51231606E-4,.175E-5,0
APRIZESAT 5,2011-044E,2026-06-13T18:20:44.834784,14.81069411,.00526197,98.2454,97.7078,15.2822,344.9964,0,U,37792,999,79828,.14243748E-3,.1072E-4,0
APRIZESAT 6,2011-044F,2026-06-13T18:14:36.403584,14.76911331,.00444775,98.2368,75.1897,96.6682,328.9113,0,U,37793,999,79664,.10718642E-3,.71E-5,0
PROBA-V,2013-021A,2026-06-13T21:15:55.221984,14.23596410,.00050074,98.3582,143.6556,131.1901,228.9711,0,U,39159,999,68064,.46796147E-4,.66E-6,0
APRIZESAT 7,2013-066A,2026-06-13T20:48:08.715456,14.91557688,.00347408,97.7709,118.1344,220.4951,139.3682,0,U,39416,999,68073,.10392124E-3,.995E-5,0
APRIZESAT 8,2013-066K,2026-06-13T20:17:43.759968,14.87647241,.004454,97.8221,112.3601,297.9239,61.7471,0,U,39425,999,67917,.106938E-3,.933E-5,0
BUGSAT-1 (TITA),2014-033E,2026-06-13T22:23:42.889920,15.15552750,.00277475,98.0428,257.2912,189.6693,170.4007,0,U,40014,999,65534,.32159438E-3,.6082E-4,0
SAUDISAT 4,2014-033G,2026-06-13T22:33:58.683456,14.79540858,.004623,97.7578,311.1873,84.2348,276.4132,0,U,40016,999,64559,.91409854E-4,.644E-5,0
APRIZESAT 9,2014-033J,2026-06-13T22:47:28.164192,14.74210615,.00654547,97.9056,298.2274,209.6629,150.0862,0,U,40018,999,64308,.10024556E-3,.632E-5,0
APRIZESAT 10,2014-033K,2026-06-13T07:36:38.967552,14.70879323,.00774569,97.9645,291.3629,286.4255,72.8449,0,U,40019,999,64168,.67697486E-4,.38E-5,0
TECHDEMOSAT-1 (TDS-1),2014-037H,2026-06-13T22:02:37.642272,15.13250006,.00045683,98.3808,156.8074,281.1076,78.9639,0,U,40076,999,64773,.4845593E-3,.8543E-4,0
TECHNOSAT,2017-042E,2026-06-13T22:11:43.166688,15.04939694,.00187966,97.4269,322.7067,104.4901,255.8413,0,U,42829,999,48621,.29267066E-3,.4103E-4,0
FLYING LAPTOP,2017-042G,2026-06-13T22:03:45.493056,15.01129459,.00194594,97.4665,320.5786,132.3226,227.9651,0,U,42831,999,48596,.41949675E-3,.5338E-4,0
HAWK-A,2018-099H,2026-06-13T22:26:46.197024,15.24608999,.00332045,97.3918,217.2133,297.9465,61.8413,0,U,43765,999,41260,.26417155E-3,.6543E-4,0
HAWK-B,2018-099AN,2026-06-13T21:17:35.293920,15.22793384,.00306796,97.3968,216.5879,317.0797,42.8046,0,U,43794,999,41253,.2751321E-3,.6442E-4,0
HAWK-C,2018-099AT,2026-06-13T20:29:16.776960,15.28060862,.00388678,97.3897,218.0285,298.1388,61.5926,0,U,43799,999,41340,.27389803E-3,.7587E-4,0
SALSAT,2020-068K,2026-06-13T22:34:10.816608,15.29757675,.00082821,97.8844,167.8072,321.8659,38.1993,0,U,46495,999,31486,.28291677E-3,.8079E-4,0
HAWK-2C,2021-006CT,2026-06-13T16:42:53.710272,15.34624685,.00062776,97.2280,209.0758,198.3110,161.7909,0,U,47502,999,29896,.20360232E-3,.6757E-4,0
HAWK-2A,2021-006CW,2026-06-13T16:46:32.009376,15.34639420,.00057082,97.2324,209.7541,201.5440,158.5564,0,U,47505,999,29896,.20117008E-3,.6677E-4,0
HAWK-2B,2021-006CZ,2026-06-13T15:06:29.740896,15.34721434,.00062741,97.2194,208.0232,199.9190,160.1810,0,U,47508,999,29895,.22398408E-3,.7464E-4,0
HAWK-3B,2021-059BE,2026-06-13T11:58:05.208096,15.69267023,.00034874,97.6657,0.8591,349.8779,10.2411,0,U,48931,999,27727,.35125226E-3,.40908E-3,0
HAWK-3C,2021-059BX,2026-06-13T11:57:37.686240,15.69273060,.00037947,97.6784,6.5384,349.8001,10.3183,0,U,48948,999,27727,.35807906E-3,.41722E-3,0
HAWK-3A,2021-059CG,2026-06-13T11:57:28.173600,15.69277429,.0003871,97.6723,3.7462,352.1708,7.9492,0,U,48957,999,27727,.35236892E-3,.4106E-3,0
HAWK-5C,2022-057Y,2026-06-13T22:45:06.982272,15.51289516,.00051987,97.6586,324.4063,92.6716,267.5131,0,U,52754,999,22584,.33011842E-3,.19291E-3,0
HAWK-5B,2022-057AA,2026-06-13T22:44:54.108672,15.51289845,.00058506,97.6594,322.7552,85.5710,274.6210,0,U,52756,999,22584,.32689982E-3,.19104E-3,0
